0 VIASAT 2
1 42740U 17029A   18291.12046305 -.00000274  00000-0  00000+0 0  9991
2 42740   0.0202 223.9076 0000226 266.9878 229.1065  1.00269850  5122